{
    "links": {
        "self": "http://www.neowsapp.com/rest/v1/neo/3276439?api_key=iIulBulltgU6a56xZRHN4H3l9WmuAYTsLGpBGhQ2"
    },
    "id": "3276439",
    "neo_reference_id": "3276439",
    "name": "(2005 GF81)",
    "designation": "2005 GF81",
    "nasa_jpl_url": "http://ssd.jpl.nasa.gov/sbdb.cgi?sstr=3276439",
    "absolute_magnitude_h": 20.0,
    "estimated_diameter": {
        "kilometers": {
            "estimated_diameter_min": 0.2658,
            "estimated_diameter_max": 0.5943468684
        },
        "meters": {
            "estimated_diameter_min": 265.8,
            "estimated_diameter_max": 594.3468684194
        },
        "miles": {
            "estimated_diameter_min": 0.1651604118,
            "estimated_diameter_max": 0.369309908
        },
        "feet": {
            "estimated_diameter_min": 872.047272,
            "estimated_diameter_max": 1949.9569797852
        }
    },
    "is_potentially_hazardous_asteroid": false,
    "close_approach_data": [
        {
            "close_approach_date": "1903-04-20",
            "close_approach_date_full": "1903-Apr-20 15:25",
            "epoch_date_close_approach": -2104907700000,
            "relative_velocity": {
                "kilometers_per_second": "16.14685398",
                "kilometers_per_hour": "58128.6743280529",
                "miles_per_hour": "36118.8976678949"
            },
            "miss_distance": {
                "astronomical": "0.3774179896",
                "lunar": "146.8155979544",
                "kilometers": "56460927.343842152",
                "miles": "35083193.4221676176"
            },
            "orbiting_body": "Earth"
        },
        {
            "close_approach_date": "2005-07-17",
            "close_approach_date_full": "2005-Jul-17 23:58",
            "epoch_date_close_approach": 1121644680000,
            "relative_velocity": {
                "kilometers_per_second": "16.6057956918",
                "kilometers_per_hour": "59780.8644905347",
                "miles_per_hour": "37145.5043830214"
            },
            "miss_distance": {
                "astronomical": "0.3660549592",
                "lunar": "142.3953791288",
                "kilometers": "54761042.199256904",
                "miles": "34026933.7727331152"
            },
            "orbiting_body": "Earth"
        }
    ],
    "orbital_data": {
        "orbit_id": "9",
        "orbit_determination_date": "2017-04-06 09:11:06",
        "first_observation_date": "2005-04-09",
        "last_observation_date": "2005-08-02",
        "data_arc_in_days": 115,
        "observations_used": 23,
        "orbit_uncertainty": "6",
        "minimum_orbit_intersection": ".100883",
        "jupiter_tisserand_invariant": "3.280",
        "epoch_osculation": "2459000.5",
        "eccentricity": ".5563946796408676",
        "semi_major_axis": "2.419359652672168",
        "inclination": "4.511748829297876",
        "ascending_node_longitude": "346.7309361670838",
        "orbital_period": "1374.513714370126",
        "perihelion_distance": "1.073240813787596",
        "perihelion_argument": "263.8902867019609",
        "aphelion_distance": "3.76547849155674",
        "perihelion_time": "2459043.832710085729",
        "mean_anomaly": "348.6506948109929",
        "mean_motion": ".2619108097913528",
        "equinox": "J2000",
        "orbit_class": {
            "orbit_class_type": "AMO",
            "orbit_class_description": "Near-Earth asteroid orbits similar to that of 1221 Amor",
            "orbit_class_range": "1.017 AU < q (perihelion) < 1.3 AU"
        }
    },
    "is_sentry_object": false
}